{
"type": "FeatureCollection",
"name": "AWAM_TERRAIN_makthar_P6_Boundaries_20250501_20260828_v1.0",
"crs": { "type": "name", "properties": { "name": "urn:ogc:def:crs:OGC:1.3:CRS84" } },
"features": [
{ "type": "Feature", "properties": { "fid": 6, "id": 6, "name": "P6", "area_h": 0.924, "cult": "Sol nu", "site": "makthar", "parcel_id": "makthar_P6", "culture": "Sol nu", "area_ha": 0.924 }, "geometry": { "type": "MultiPolygon", "coordinates": [ [ [ [ 9.336040064498809, 35.631596716399365 ], [ 9.336173682767669, 35.631484065873011 ], [ 9.336437444748324, 35.631250353246323 ], [ 9.336749197860701, 35.630982822574367 ], [ 9.337139907913743, 35.630687000712655 ], [ 9.337975986324849, 35.630013798468923 ], [ 9.337929312162615, 35.629952176643151 ], [ 9.337846620803839, 35.629910304417784 ], [ 9.337753603458866, 35.629865654142293 ], [ 9.337550296057925, 35.629756753165978 ], [ 9.337302105523687, 35.629603066416969 ], [ 9.336683768019961, 35.630547929221002 ], [ 9.33643121726757, 35.630994938796867 ], [ 9.336040064498809, 35.631596716399365 ] ] ] ] } }
]
}
