{
"type": "FeatureCollection",
"name": "AWAM_TERRAIN_makthar_P3_Boundaries_20250501_20260828_v1.0",
"crs": { "type": "name", "properties": { "name": "urn:ogc:def:crs:OGC:1.3:CRS84" } },
"features": [
{ "type": "Feature", "properties": { "fid": 3, "id": 3, "name": "P3", "area_h": 0.735, "cult": "Sol nu", "site": "makthar", "parcel_id": "makthar_P3", "culture": "Sol nu", "area_ha": 0.735 }, "geometry": { "type": "MultiPolygon", "coordinates": [ [ [ [ 9.330478108474129, 35.635403580933087 ], [ 9.330553745912219, 35.635401969931635 ], [ 9.330655193927758, 35.635405901921473 ], [ 9.330768652971452, 35.635404186962255 ], [ 9.330909618632317, 35.635402396338016 ], [ 9.33104884197224, 35.635394996453428 ], [ 9.33112617539674, 35.635387766548078 ], [ 9.331467141598655, 35.635108941567857 ], [ 9.331544277645358, 35.635053993925013 ], [ 9.331654002162303, 35.634980711392046 ], [ 9.331767147385568, 35.634903208924797 ], [ 9.331885386023822, 35.634810254136994 ], [ 9.332010564828821, 35.634732718285811 ], [ 9.332072274248334, 35.634689040588498 ], [ 9.332147672910112, 35.634629886933816 ], [ 9.332252308557257, 35.634573459537549 ], [ 9.332267705360286, 35.634555171946374 ], [ 9.33189668497843, 35.634216554741435 ], [ 9.331633507410043, 35.634389204769278 ], [ 9.331538699699708, 35.634470845132753 ], [ 9.331458282363272, 35.634563695523958 ], [ 9.331344154024475, 35.634676309115079 ], [ 9.33125589295102, 35.634743216729575 ], [ 9.330704707101086, 35.635205223161336 ], [ 9.330546557213017, 35.635326202226942 ], [ 9.330494486621143, 35.635349480439082 ], [ 9.330456754581583, 35.635371337753476 ], [ 9.330425022265404, 35.635388968186113 ], [ 9.330448853801229, 35.635396643833289 ], [ 9.330478108474129, 35.635403580933087 ] ] ] ] } }
]
}
