{
"type": "FeatureCollection",
"name": "AWAM_TERRAIN_makthar_P2_Boundaries_20250501_20260828_v1.0",
"crs": { "type": "name", "properties": { "name": "urn:ogc:def:crs:OGC:1.3:CRS84" } },
"features": [
{ "type": "Feature", "properties": { "fid": 2, "id": 2, "name": "P2", "area_h": 1.42, "cult": "Olivier", "site": "makthar", "parcel_id": "makthar_P2", "culture": "Olivier", "area_ha": 1.42 }, "geometry": { "type": "MultiPolygon", "coordinates": [ [ [ [ 9.33193001379221, 35.634169446626501 ], [ 9.332344008980883, 35.633884102258996 ], [ 9.332841346783875, 35.633590807124264 ], [ 9.333191151274683, 35.633373705533089 ], [ 9.333400301119648, 35.633232779735792 ], [ 9.333647142426509, 35.63306087281763 ], [ 9.333993539234658, 35.632852199155479 ], [ 9.334103071618847, 35.632734003827203 ], [ 9.334418440158151, 35.632505766389848 ], [ 9.33456926490439, 35.632395876825626 ], [ 9.334768399491786, 35.632327956974201 ], [ 9.334568130349288, 35.632123606510035 ], [ 9.334513201231655, 35.632143407652556 ], [ 9.334406781103375, 35.63218300031852 ], [ 9.334231737275186, 35.632256466622266 ], [ 9.334187216026159, 35.632298694282909 ], [ 9.334098056587344, 35.632355080449166 ], [ 9.334015773420449, 35.632411447483527 ], [ 9.333899131472824, 35.632473523585944 ], [ 9.333494484669558, 35.632730076287359 ], [ 9.333415673877427, 35.632794854125919 ], [ 9.333367620445758, 35.632814635715519 ], [ 9.333288611384955, 35.632831695991676 ], [ 9.333223285262973, 35.632831876710966 ], [ 9.333154695632357, 35.632874170562509 ], [ 9.332835685990771, 35.633054696724464 ], [ 9.332629938953726, 35.633187191323003 ], [ 9.332396615605662, 35.633302920007459 ], [ 9.331967845637362, 35.633548306359479 ], [ 9.331741443178348, 35.633675242471057 ], [ 9.331488492003546, 35.633826110226728 ], [ 9.331905042785113, 35.634158989396674 ], [ 9.33193001379221, 35.634169446626501 ] ] ] ] } }
]
}
