{
"type": "FeatureCollection",
"name": "AWAM_TERRAIN_makthar_P4_Boundaries_20250501_20260828_v1.0",
"crs": { "type": "name", "properties": { "name": "urn:ogc:def:crs:OGC:1.3:CRS84" } },
"features": [
{ "type": "Feature", "properties": { "fid": 4, "id": 4, "name": "P4", "area_h": 1.436, "cult": "Sol nu", "site": "makthar", "parcel_id": "makthar_P4", "culture": "Sol nu", "area_ha": 1.436 }, "geometry": { "type": "MultiPolygon", "coordinates": [ [ [ [ 9.334884615136506, 35.632576048400935 ], [ 9.334958261363271, 35.632509880491668 ], [ 9.334980451582195, 35.632471925060955 ], [ 9.334940701499777, 35.632421510617299 ], [ 9.334840777172955, 35.632369859961358 ], [ 9.33479427958795, 35.632350340594932 ], [ 9.334764984703618, 35.632333580349488 ], [ 9.334605371830296, 35.632397180011708 ], [ 9.334205101392461, 35.632671968068721 ], [ 9.334143403444942, 35.632717752041351 ], [ 9.334078293492192, 35.632769861065796 ], [ 9.334006441308286, 35.632854268590322 ], [ 9.333972123348898, 35.632869801922062 ], [ 9.333843522794574, 35.632950156248384 ], [ 9.333536600693201, 35.633143282003992 ], [ 9.333289782200248, 35.633320802516621 ], [ 9.333070334666589, 35.633465967007382 ], [ 9.332699923188152, 35.633688739045972 ], [ 9.332226663741297, 35.633984774133864 ], [ 9.331928509346771, 35.634221379204405 ], [ 9.33227021147192, 35.634537621645663 ], [ 9.332335446033415, 35.634514986155367 ], [ 9.332431497303578, 35.634461389227752 ], [ 9.332548131646394, 35.634396507635124 ], [ 9.333192665177569, 35.633945615865962 ], [ 9.333579929518477, 35.633641394326339 ], [ 9.333915804133881, 35.633382225072879 ], [ 9.33430983428007, 35.633052719934938 ], [ 9.334525612154456, 35.632852827993609 ], [ 9.334884615136506, 35.632576048400935 ] ] ] ] } }
]
}
