{
"type": "FeatureCollection",
"name": "AWAM_TERRAIN_makthar_P1_Boundaries_20250501_20260828_v1.0",
"crs": { "type": "name", "properties": { "name": "urn:ogc:def:crs:OGC:1.3:CRS84" } },
"features": [
{ "type": "Feature", "properties": { "fid": 1, "id": 1, "name": "P1", "area_h": 0.965, "cult": "Amandier", "site": "makthar", "parcel_id": "makthar_P1", "culture": "Amandier", "area_ha": 0.965 }, "geometry": { "type": "MultiPolygon", "coordinates": [ [ [ [ 9.329940377006618, 35.63533344380803 ], [ 9.329979307843134, 35.635357113778817 ], [ 9.33012985136158, 35.635372552372871 ], [ 9.330411440450439, 35.635383668638958 ], [ 9.330455029852773, 35.635359772463175 ], [ 9.330551900536911, 35.635307990701719 ], [ 9.330706759514817, 35.635192645392273 ], [ 9.330851811816409, 35.635053550209406 ], [ 9.331141931258406, 35.634779322041375 ], [ 9.331200033379423, 35.634743497395206 ], [ 9.33126779459468, 35.634695757854509 ], [ 9.33131617205097, 35.634655997126075 ], [ 9.3314129268198, 35.634576475610928 ], [ 9.331582067171055, 35.634393722816185 ], [ 9.331698237664934, 35.63431414762524 ], [ 9.331853191357723, 35.634222577182136 ], [ 9.331911210843984, 35.634166938576904 ], [ 9.331482662205314, 35.633831283260271 ], [ 9.331376167582212, 35.633902906094548 ], [ 9.331173049347695, 35.634085752029222 ], [ 9.330926537541369, 35.634340046666637 ], [ 9.330781535630642, 35.634491030119051 ], [ 9.330622003525029, 35.63464997881178 ], [ 9.330467275959563, 35.634797025805661 ], [ 9.330240013217804, 35.635011638530422 ], [ 9.330085398309471, 35.63518642409602 ], [ 9.329998366044638, 35.635269880676248 ], [ 9.329940377006618, 35.63533344380803 ] ] ] ] } }
]
}
