{
"type": "FeatureCollection",
"name": "AWAM_TERRAIN_makthar_P5_Boundaries_20250501_20260828_v1.0",
"crs": { "type": "name", "properties": { "name": "urn:ogc:def:crs:OGC:1.3:CRS84" } },
"features": [
{ "type": "Feature", "properties": { "fid": 5, "id": 5, "name": "P5", "area_h": 1.628, "cult": "Sol nu", "site": "makthar", "parcel_id": "makthar_P5", "culture": "Sol nu", "area_ha": 1.628 }, "geometry": { "type": "MultiPolygon", "coordinates": [ [ [ [ 9.335267048084155, 35.632558844736693 ], [ 9.335790322913885, 35.631894948758266 ], [ 9.336091166970178, 35.631484296112838 ], [ 9.336432877530829, 35.630980899443351 ], [ 9.335736660356952, 35.630573028021395 ], [ 9.335506634755122, 35.63065226329028 ], [ 9.335383038195678, 35.630694711601201 ], [ 9.335338577028425, 35.630750974245075 ], [ 9.335304617732483, 35.630852118738986 ], [ 9.33531190425955, 35.630950341480876 ], [ 9.335367453725688, 35.631079306249561 ], [ 9.335402339316341, 35.631199907693059 ], [ 9.335395744421543, 35.631267292694787 ], [ 9.335347985477284, 35.631357247838729 ], [ 9.33526910720556, 35.631405185425216 ], [ 9.33519721061657, 35.63147836602311 ], [ 9.33515614018315, 35.631523391386139 ], [ 9.335094382157953, 35.63155443956596 ], [ 9.335029431879528, 35.631644442399548 ], [ 9.334933666730551, 35.63176540725069 ], [ 9.334858261102154, 35.631821755740972 ], [ 9.33480013988069, 35.631900511692983 ], [ 9.334700865694995, 35.632004644449601 ], [ 9.334574074071497, 35.63210604660857 ], [ 9.334712233363003, 35.632257237735402 ], [ 9.33478125468474, 35.632318798685034 ], [ 9.334801954079136, 35.63233558281577 ], [ 9.334922536794544, 35.632394193428055 ], [ 9.334974261997619, 35.632430539865588 ], [ 9.33502259589639, 35.632478123483324 ], [ 9.335129367590572, 35.632522737580977 ], [ 9.335267048084155, 35.632558844736693 ] ] ] ] } }
]
}
