{
"type": "FeatureCollection",
"name": "AWAM_TERRAIN_sidi-mechreg_Parcelle_Kemel_2_Boundaries_20250501_20260828_v1.0",
"crs": { "type": "name", "properties": { "name": "urn:ogc:def:crs:OGC:1.3:CRS84" } },
"features": [
{ "type": "Feature", "properties": { "fid": 6, "id": 2, "name": "Parcelle Kemel", "area_h": 0.6528, "culture": "Aucune", "puit": false, "sol_ph": 7.47, "sol_ec_mS_cm": 0.153, "sol_salinite_g_L": 0.1, "sol_nitrates_N_mg_L": 3.19, "sol_humidite_pct": 2.04, "sol_matiere_organique_pct": 1.01, "sol_carbone_total_pct": 0.58, "sol_potassium_mg_L": 1.0, "sol_sodium_mg_L": 41.0, "sol_sable_pct": 92.0, "sol_limon_pct": 4.0, "sol_argile_pct": 4.0, "sol_texture": "Sableuse", "sol_diagnostic": "Sol légèrement alcalin (pH 7.47), salinité très faible, très pauvre en MO (1.01%), N et K (1 mg/L). Faible rétention eau. Nécessite apports MO, K, N.", "eau_ph": 7.79, "eau_ec_uS_cm": 1033.0, "eau_tds_mg_L": 0.67, "eau_nitrates_mg_L": 21.63, "eau_statut": "Conforme (restriction légère à modérée)", "statut_phytosanitaire": null, "dernier_evenement_id": null, "pathogene_identifie": null, "espece_hote": null, "date_evenement": null, "niveau_alerte": null, "consigne_quarantaine": null, "site": "sidi_mechreg", "parcel_id": "sidi_mechreg_Parcelle_Kemel_2", "area_ha": 0.6528 }, "geometry": { "type": "MultiPolygon", "coordinates": [ [ [ [ 9.164283522738604, 37.178581766163575 ], [ 9.164355266905062, 37.178529168200733 ], [ 9.16443022733435, 37.178519064493663 ], [ 9.164502047228222, 37.178501465317588 ], [ 9.164586309864205, 37.178458849543297 ], [ 9.165316812677871, 37.178195340255094 ], [ 9.165569723385261, 37.178124989166932 ], [ 9.165700853996256, 37.178084807027766 ], [ 9.165775748254244, 37.178044703433613 ], [ 9.165847638427502, 37.178059602398697 ], [ 9.166228088472952, 37.177736578656159 ], [ 9.166071795322422, 37.177699298897153 ], [ 9.165903136650481, 37.1777220345055 ], [ 9.165771930301357, 37.177727217991325 ], [ 9.165621973148824, 37.177729927614578 ], [ 9.165518895666112, 37.177740071355096 ], [ 9.16537532860184, 37.177807769854724 ], [ 9.165222355933901, 37.177860481730391 ], [ 9.165072496402979, 37.177908189216552 ], [ 9.164944517167168, 37.177960865911977 ], [ 9.164772814780012, 37.178021103059542 ], [ 9.164679163750291, 37.178056232235043 ], [ 9.164569923989237, 37.178106382552372 ], [ 9.164482597115144, 37.178176501771681 ], [ 9.16437962720034, 37.178236642918677 ], [ 9.164298499765753, 37.178284254054923 ], [ 9.16426105213646, 37.178304305391478 ], [ 9.164170557223626, 37.178354429352439 ], [ 9.164145606517534, 37.178374463337228 ], [ 9.164086364758473, 37.178429543789221 ], [ 9.164080175731803, 37.178457051559334 ], [ 9.164145876960776, 37.178499459325252 ], [ 9.164208426953586, 37.178529371785409 ], [ 9.164217810539006, 37.178534358635495 ], [ 9.164236583125421, 37.17854683225314 ], [ 9.164283522738604, 37.178581766163575 ] ] ] ] } }
]
}
