{
"type": "FeatureCollection",
"name": "AWAM_TERRAIN_sidi-mechreg_Parcelle_Kemel_3_Boundaries_20250501_20260828_v1.0",
"crs": { "type": "name", "properties": { "name": "urn:ogc:def:crs:OGC:1.3:CRS84" } },
"features": [
{"type":"Feature","properties":{"fid":7,"id":3,"name":"Parcelle Kemel","area_h":0.1651,"culture":"Caroubier","puit":false,"sol_ph":7.47,"sol_ec_mS_cm":0.153,"sol_salinite_g_L":0.1,"sol_nitrates_N_mg_L":3.19,"sol_humidite_pct":2.04,"sol_matiere_organique_pct":1.01,"sol_carbone_total_pct":0.58,"sol_potassium_mg_L":1.0,"sol_sodium_mg_L":41.0,"sol_sable_pct":92.0,"sol_limon_pct":4.0,"sol_argile_pct":4.0,"sol_texture":"Sableuse","sol_diagnostic":"Sol légèrement alcalin (pH 7.47), salinité très faible, très pauvre en MO (1.01%), N et K (1 mg/L). Faible rétention eau. Nécessite apports MO, K, N.","eau_ph":7.79,"eau_ec_uS_cm":1033.0,"eau_tds_mg_L":0.67,"eau_nitrates_mg_L":21.63,"eau_statut":"Conforme (restriction légère à modérée)","statut_phytosanitaire":null,"dernier_evenement_id":null,"pathogene_identifie":null,"espece_hote":null,"date_evenement":null,"niveau_alerte":null,"consigne_quarantaine":null,"site":"sidi_mechreg","parcel_id":"sidi_mechreg_Parcelle_Kemel_3","area_ha":0.1651},"geometry":{"type":"MultiPolygon","coordinates":[[[[9.166620119839392,37.178508406062086],[9.166506376787973,37.178451147397524],[9.166422564570917,37.178408201227157],[9.166374662923857,37.178379559218904],[9.16627884925105,37.178317490278808],[9.166146978652035,37.178174128870914],[9.165961206558849,37.177992563781025],[9.166349348220725,37.177743205759178],[9.166786514071896,37.178034468894644],[9.167020063600793,37.17818725607507],[9.167038287499885,37.178316422133044],[9.167014610456377,37.178426507734734],[9.16691910150038,37.17850320038572],[9.166775669407755,37.178541681385575],[9.166620119839392,37.178508406062086]]]]}}
]
}
