{
"type": "FeatureCollection",
"name": "AWAM_TERRAIN_sidi-mechreg_Parcelle_Badreddine_5_Boundaries_20250501_20260828_v1.0",
"crs": { "type": "name", "properties": { "name": "urn:ogc:def:crs:OGC:1.3:CRS84" } },
"features": [
{"type":"Feature","properties":{"fid":5,"id":5,"name":"Parcelle Badreddine","area_h":2.1136941490672498,"culture":"Olivier/Citronnelle/Verveine","puit":false,"sol_ph":8.3,"sol_ec_mS_cm":0.501,"sol_salinite_g_L":0.35,"sol_nitrates_N_mg_L":36.41,"sol_humidite_pct":6.38,"sol_matiere_organique_pct":4.16,"sol_carbone_total_pct":2.41,"sol_potassium_mg_L":5.0,"sol_sodium_mg_L":44.0,"sol_sable_pct":61.5,"sol_limon_pct":34.6,"sol_argile_pct":3.8,"sol_texture":"Sable-limon","sol_diagnostic":"Sol fortement alcalin (pH 8.3), salinité faible, azote élevé, MO 4.16%. Risque de chlorose/carence oligo-éléments (Fe, Mn, Zn). Potassium faible (5 mg/L).","eau_ph":7.44,"eau_ec_uS_cm":361.0,"eau_tds_mg_L":0.23,"eau_nitrates_mg_L":2.26,"eau_statut":"Conforme (aucune restriction)","statut_phytosanitaire":"FOYER_PARASITAIRE_ACTIF","dernier_evenement_id":"EVT-2026-08-25-PHYT-01","pathogene_identifie":"Cuscuta spp. (Cuscute / Teigne)","espece_hote":"Verveine / Basilic","date_evenement":"2026-08-25T00:00:00","niveau_alerte":"CRITIQUE","consigne_quarantaine":"Taille sous haustoria / Arrachage complet, Sacs fermés sur place, Brûlage sans compostage, Quarantaine sécateurs et engins","site":"sidi_mechreg","parcel_id":"sidi_mechreg_Parcelle_Badreddine_5","area_ha":2.1136941490672498},"geometry":{"type":"MultiPolygon","coordinates":[[[[9.105161025485923,37.127138740352557],[9.105113834207923,37.127000808618519],[9.10507180889754,37.126866651274305],[9.105048536289159,37.126760018835931],[9.105006093434817,37.126603260617472],[9.105088416056818,37.126541226666809],[9.105173358374193,37.126507124931209],[9.105272742219958,37.126433780036692],[9.105422936676177,37.126376749918677],[9.107624951676192,37.125829257351917],[9.107788913398005,37.125867995718714],[9.107880214115157,37.126038044731622],[9.1078926520651,37.126247052793154],[9.108002331218309,37.12653374694635],[9.107425741202331,37.126621767304215],[9.107104303527132,37.126840799331262],[9.106539824282471,37.126909360775073],[9.106023943563796,37.12700218065396],[9.105402246812041,37.127114416456799],[9.105161025485923,37.127138740352557]]]]}}
]
}
