{
"type": "FeatureCollection",
"name": "AWAM_TERRAIN_sidi-mechreg_ALL_Boundaries_20250501_20260828_v1.0",
"crs": { "type": "name", "properties": { "name": "urn:ogc:def:crs:OGC:1.3:CRS84" } },
"features": [
{"type":"Feature","properties":{"fid":1,"id":1,"name":"Parcelle Kemel","area_h":0.84334695012578742,"culture":"Lavande/Romarin/Geranium","puit":false,"sol_ph":7.47,"sol_ec_mS_cm":0.153,"sol_salinite_g_L":0.1,"sol_nitrates_N_mg_L":3.19,"sol_humidite_pct":2.04,"sol_matiere_organique_pct":1.01,"sol_carbone_total_pct":0.58,"sol_potassium_mg_L":1.0,"sol_sodium_mg_L":41.0,"sol_sable_pct":92.0,"sol_limon_pct":4.0,"sol_argile_pct":4.0,"sol_texture":"Sableuse","sol_diagnostic":"Sol légèrement alcalin (pH 7.47), salinité très faible, très pauvre en MO (1.01%), N et K (1 mg/L). Faible rétention eau. Nécessite apports MO, K, N.","eau_ph":7.79,"eau_ec_uS_cm":1033.0,"eau_tds_mg_L":0.67,"eau_nitrates_mg_L":21.63,"eau_statut":"Conforme (restriction légère à modérée)","statut_phytosanitaire":null,"dernier_evenement_id":null,"pathogene_identifie":null,"espece_hote":null,"date_evenement":null,"niveau_alerte":null,"consigne_quarantaine":null,"site":"sidi_mechreg","parcel_id":"sidi_mechreg_Parcelle_Kemel_1","area_ha":0.84334695012578742},"geometry":{"type":"MultiPolygon","coordinates":[[[[9.164372596312976,37.178860185657719],[9.164380008383889,37.178977585323878],[9.164383823014997,37.179086399006444],[9.164430503208825,37.179157925666971],[9.164502080238334,37.179157826317756],[9.164602257012922,37.179143368913557],[9.164932028012007,37.179380593891459],[9.165218012662489,37.179231285306336],[9.165421732641416,37.179105000161151],[9.165489587094394,37.179039041297614],[9.165568134209625,37.178953021853751],[9.165975915401891,37.178857950670803],[9.166097483008484,37.178806234493152],[9.166176010375285,37.178711623699662],[9.166057514094126,37.178531379409272],[9.166003687651946,37.178465590710104],[9.165978498091794,37.178402625533295],[9.1659819704001,37.178353938492251],[9.165913860221741,37.178302488045261],[9.165717238297333,37.178400127549111],[9.165180964634725,37.178652878196452],[9.164959270351044,37.178741960415621],[9.164866289178956,37.178773590054462],[9.164551507128113,37.178845619049333],[9.164379698145042,37.178834402889947],[9.164372596312976,37.178860185657719]]]]}},
{"type":"Feature","properties":{"fid":6,"id":2,"name":"Parcelle Kemel","area_h":0.6528,"culture":"Aucune","puit":false,"sol_ph":7.47,"sol_ec_mS_cm":0.153,"sol_salinite_g_L":0.1,"sol_nitrates_N_mg_L":3.19,"sol_humidite_pct":2.04,"sol_matiere_organique_pct":1.01,"sol_carbone_total_pct":0.58,"sol_potassium_mg_L":1.0,"sol_sodium_mg_L":41.0,"sol_sable_pct":92.0,"sol_limon_pct":4.0,"sol_argile_pct":4.0,"sol_texture":"Sableuse","sol_diagnostic":"Sol légèrement alcalin (pH 7.47), salinité très faible, très pauvre en MO (1.01%), N et K (1 mg/L). Faible rétention eau. Nécessite apports MO, K, N.","eau_ph":7.79,"eau_ec_uS_cm":1033.0,"eau_tds_mg_L":0.67,"eau_nitrates_mg_L":21.63,"eau_statut":"Conforme (restriction légère à modérée)","statut_phytosanitaire":null,"dernier_evenement_id":null,"pathogene_identifie":null,"espece_hote":null,"date_evenement":null,"niveau_alerte":null,"consigne_quarantaine":null,"site":"sidi_mechreg","parcel_id":"sidi_mechreg_Parcelle_Kemel_2","area_ha":0.6528},"geometry":{"type":"MultiPolygon","coordinates":[[[[9.164283522738604,37.178581766163575],[9.164355266905062,37.178529168200733],[9.16443022733435,37.178519064493663],[9.164502047228222,37.178501465317588],[9.164586309864205,37.178458849543297],[9.165316812677871,37.178195340255094],[9.165569723385261,37.178124989166932],[9.165700853996256,37.178084807027766],[9.165775748254244,37.178044703433613],[9.165847638427502,37.178059602398697],[9.166228088472952,37.177736578656159],[9.166071795322422,37.177699298897153],[9.165903136650481,37.1777220345055],[9.165771930301357,37.177727217991325],[9.165621973148824,37.177729927614578],[9.165518895666112,37.177740071355096],[9.16537532860184,37.177807769854724],[9.165222355933901,37.177860481730391],[9.165072496402979,37.177908189216552],[9.164944517167168,37.177960865911977],[9.164772814780012,37.178021103059542],[9.164679163750291,37.178056232235043],[9.164569923989237,37.178106382552372],[9.164482597115144,37.178176501771681],[9.16437962720034,37.178236642918677],[9.164298499765753,37.178284254054923],[9.16426105213646,37.178304305391478],[9.164170557223626,37.178354429352439],[9.164145606517534,37.178374463337228],[9.164086364758473,37.178429543789221],[9.164080175731803,37.178457051559334],[9.164145876960776,37.178499459325252],[9.164208426953586,37.178529371785409],[9.164217810539006,37.178534358635495],[9.164236583125421,37.17854683225314],[9.164283522738604,37.178581766163575]]]]}},
{"type":"Feature","properties":{"fid":7,"id":3,"name":"Parcelle Kemel","area_h":0.1651,"culture":"Caroubier","puit":false,"sol_ph":7.47,"sol_ec_mS_cm":0.153,"sol_salinite_g_L":0.1,"sol_nitrates_N_mg_L":3.19,"sol_humidite_pct":2.04,"sol_matiere_organique_pct":1.01,"sol_carbone_total_pct":0.58,"sol_potassium_mg_L":1.0,"sol_sodium_mg_L":41.0,"sol_sable_pct":92.0,"sol_limon_pct":4.0,"sol_argile_pct":4.0,"sol_texture":"Sableuse","sol_diagnostic":"Sol légèrement alcalin (pH 7.47), salinité très faible, très pauvre en MO (1.01%), N et K (1 mg/L). Faible rétention eau. Nécessite apports MO, K, N.","eau_ph":7.79,"eau_ec_uS_cm":1033.0,"eau_tds_mg_L":0.67,"eau_nitrates_mg_L":21.63,"eau_statut":"Conforme (restriction légère à modérée)","statut_phytosanitaire":null,"dernier_evenement_id":null,"pathogene_identifie":null,"espece_hote":null,"date_evenement":null,"niveau_alerte":null,"consigne_quarantaine":null,"site":"sidi_mechreg","parcel_id":"sidi_mechreg_Parcelle_Kemel_3","area_ha":0.1651},"geometry":{"type":"MultiPolygon","coordinates":[[[[9.166626078665089,37.17849882792413],[9.166494396107781,37.17844159447354],[9.16641055242175,37.178384293700489],[9.166338699994183,37.178341330673227],[9.16625481459416,37.178264890329146],[9.166152947990563,37.178169335621078],[9.165973197568688,37.178006901625118],[9.166373225383804,37.177724032716277],[9.166750572132875,37.178005810201718],[9.167037960916293,37.178168091328388],[9.167038245359931,37.178297282674592],[9.167020558691886,37.178412144712418],[9.166931050658738,37.178498398673078],[9.166781638735271,37.178536888104375],[9.166626078665089,37.17849882792413]]]]}},
{"type":"Feature","properties":{"fid":4,"id":4,"name":"Parcelle Yahia","area_h":0.58862913281172513,"culture":"Lavande/Romarin/Geranium/Sauge","puit":false,"sol_ph":7.78,"sol_ec_mS_cm":0.14,"sol_salinite_g_L":0.09,"sol_nitrates_N_mg_L":3.43,"sol_humidite_pct":3.09,"sol_matiere_organique_pct":1.01,"sol_carbone_total_pct":0.58,"sol_potassium_mg_L":3.0,"sol_sodium_mg_L":35.0,"sol_sable_pct":94.3,"sol_limon_pct":3.7,"sol_argile_pct":1.8,"sol_texture":"Sableuse","sol_diagnostic":"Sol légèrement alcalin (pH 7.78), très sec (humidite 3.09%), très pauvre en MO (1.01%), N et K. Adapté aux aromatiques rustiques et arbres méditerranéens.","eau_ph":null,"eau_ec_uS_cm":null,"eau_tds_mg_L":null,"eau_nitrates_mg_L":null,"eau_statut":"N/D (non disponible)","statut_phytosanitaire":null,"dernier_evenement_id":null,"pathogene_identifie":null,"espece_hote":null,"date_evenement":null,"niveau_alerte":null,"consigne_quarantaine":null,"site":"sidi_mechreg","parcel_id":"sidi_mechreg_Parcelle_Yahia_4","area_ha":0.58862913281172513},"geometry":{"type":"MultiPolygon","coordinates":[[[[9.162811210918031,37.175880157556648],[9.162967658909222,37.175794435491156],[9.16321901404268,37.175618718715043],[9.163511107204624,37.175445579806677],[9.163957518429509,37.175227421508168],[9.164063245570464,37.175182499735492],[9.164290359152858,37.175018625770363],[9.164507682206811,37.174834423169763],[9.164356004690417,37.17461201652803],[9.163781996947881,37.174859625925805],[9.163497874801196,37.174918092320603],[9.163286305272619,37.174966779074573],[9.163123076471161,37.174996040904404],[9.162929639579007,37.175039862555977],[9.16280275977312,37.175098110973948],[9.162637622122944,37.175170856690343],[9.162457166218561,37.175256896075595],[9.162407241183908,37.175336120905705],[9.162577891657033,37.175561641755188],[9.162698936577794,37.175710950502868],[9.162747621462456,37.175810913341508],[9.162811210918031,37.175880157556648]]]]}},
{"type":"Feature","properties":{"fid":5,"id":5,"name":"Parcelle Badreddine","area_h":2.1136941490672498,"culture":"Olivier/Citronnelle/Verveine","puit":false,"sol_ph":8.3,"sol_ec_mS_cm":0.501,"sol_salinite_g_L":0.35,"sol_nitrates_N_mg_L":36.41,"sol_humidite_pct":6.38,"sol_matiere_organique_pct":4.16,"sol_carbone_total_pct":2.41,"sol_potassium_mg_L":5.0,"sol_sodium_mg_L":44.0,"sol_sable_pct":61.5,"sol_limon_pct":34.6,"sol_argile_pct":3.8,"sol_texture":"Sable-limon","sol_diagnostic":"Sol fortement alcalin (pH 8.3), salinité faible, azote élevé, MO 4.16%. Risque de chlorose/carence oligo-éléments (Fe, Mn, Zn). Potassium faible (5 mg/L).","eau_ph":7.44,"eau_ec_uS_cm":361.0,"eau_tds_mg_L":0.23,"eau_nitrates_mg_L":2.26,"eau_statut":"Conforme (aucune restriction)","statut_phytosanitaire":"FOYER_PARASITAIRE_ACTIF","dernier_evenement_id":"EVT-2026-08-25-PHYT-01","pathogene_identifie":"Cuscuta spp. (Cuscute / Teigne)","espece_hote":"Verveine / Basilic","date_evenement":"2026-08-25T00:00:00","niveau_alerte":"CRITIQUE","consigne_quarantaine":"Taille sous haustoria / Arrachage complet, Sacs fermés sur place, Brûlage sans compostage, Quarantaine sécateurs et engins","site":"sidi_mechreg","parcel_id":"sidi_mechreg_Parcelle_Badreddine_5","area_ha":2.1136941490672498},"geometry":{"type":"MultiPolygon","coordinates":[[[[9.105161025485923,37.127138740352557],[9.105113834207923,37.127000808618519],[9.10507180889754,37.126866651274305],[9.105048536289159,37.126760018835931],[9.105006093434817,37.126603260617472],[9.105561719144648,37.126390117784503],[9.107618867297868,37.1258195410431],[9.107801054632134,37.125867984679203],[9.107880227913013,37.126047766550876],[9.107904820961942,37.126266485380704],[9.107990203690084,37.12654347982506],[9.107377223851918,37.126655837666384],[9.107086091442437,37.12684081578341],[9.106479144515728,37.126928858952247],[9.106030041395174,37.1270216188611],[9.105574819195249,37.127080356111378],[9.105161025485923,37.127138740352557]]]]}}
]
}
