{
"type": "FeatureCollection",
"name": "AWAM_TERRAIN_sidi-mechreg_Parcelle_Yahia_4_Boundaries_20250501_20260828_v1.0",
"crs": { "type": "name", "properties": { "name": "urn:ogc:def:crs:OGC:1.3:CRS84" } },
"features": [
{"type":"Feature","properties":{"fid":4,"id":4,"name":"Parcelle Yahia","area_h":0.58862913281172513,"culture":"Lavande/Romarin/Geranium/Sauge","puit":false,"sol_ph":7.78,"sol_ec_mS_cm":0.14,"sol_salinite_g_L":0.09,"sol_nitrates_N_mg_L":3.43,"sol_humidite_pct":3.09,"sol_matiere_organique_pct":1.01,"sol_carbone_total_pct":0.58,"sol_potassium_mg_L":3.0,"sol_sodium_mg_L":35.0,"sol_sable_pct":94.3,"sol_limon_pct":3.7,"sol_argile_pct":1.8,"sol_texture":"Sableuse","sol_diagnostic":"Sol légèrement alcalin (pH 7.78), très sec (humidite 3.09%), très pauvre en MO (1.01%), N et K. Adapté aux aromatiques rustiques et arbres méditerranéens.","eau_ph":null,"eau_ec_uS_cm":null,"eau_tds_mg_L":null,"eau_nitrates_mg_L":null,"eau_statut":"N/D (non disponible)","statut_phytosanitaire":null,"dernier_evenement_id":null,"pathogene_identifie":null,"espece_hote":null,"date_evenement":null,"niveau_alerte":null,"consigne_quarantaine":null,"site":"sidi_mechreg","parcel_id":"sidi_mechreg_Parcelle_Yahia_4","area_ha":0.58862913281172513},"geometry":{"type":"MultiPolygon","coordinates":[[[[9.162811210918031,37.175880157556648],[9.162967658909222,37.175794435491156],[9.16321901404268,37.175618718715043],[9.163442005412133,37.175437724913706],[9.163957518429509,37.175227421508168],[9.164205899041153,37.175115532887006],[9.164417195730929,37.174941017810532],[9.164507713684333,37.174848941633435],[9.164380195868741,37.174611982972088],[9.163781934094445,37.174830588912748],[9.163503880906399,37.174898726023507],[9.163195608742287,37.17497658302365],[9.163002192735139,37.175030083769748],[9.16289339416274,37.175059270396751],[9.162754356341097,37.175088498461349],[9.162637622122944,37.175170856690343],[9.162457166218561,37.175256896075595],[9.162407241183908,37.175336120905705],[9.162577891657033,37.175561641755188],[9.162698936577794,37.175710950502868],[9.162747621462456,37.175810913341508],[9.162811210918031,37.175880157556648]]]]}}
]
}
