{
"type": "FeatureCollection",
"name": "AWAM_TERRAIN_sidi-mechreg_Parcelle_Kemel_1_Boundaries_20250501_20260828_v1.0",
"crs": { "type": "name", "properties": { "name": "urn:ogc:def:crs:OGC:1.3:CRS84" } },
"features": [
{ "type": "Feature", "properties": { "fid": 1, "id": 1, "name": "Parcelle Kemel", "area_h": 0.84334695012578742, "culture": "Lavande/Romarin/Geranium", "puit": false, "sol_ph": 7.47, "sol_ec_mS_cm": 0.153, "sol_salinite_g_L": 0.1, "sol_nitrates_N_mg_L": 3.19, "sol_humidite_pct": 2.04, "sol_matiere_organique_pct": 1.01, "sol_carbone_total_pct": 0.58, "sol_potassium_mg_L": 1.0, "sol_sodium_mg_L": 41.0, "sol_sable_pct": 92.0, "sol_limon_pct": 4.0, "sol_argile_pct": 4.0, "sol_texture": "Sableuse", "sol_diagnostic": "Sol légèrement alcalin (pH 7.47), salinité très faible, très pauvre en MO (1.01%), N et K (1 mg/L). Faible rétention eau. Nécessite apports MO, K, N.", "eau_ph": 7.79, "eau_ec_uS_cm": 1033.0, "eau_tds_mg_L": 0.67, "eau_nitrates_mg_L": 21.63, "eau_statut": "Conforme (restriction légère à modérée)", "statut_phytosanitaire": null, "dernier_evenement_id": null, "pathogene_identifie": null, "espece_hote": null, "date_evenement": null, "niveau_alerte": null, "consigne_quarantaine": null, "site": "sidi_mechreg", "parcel_id": "sidi_mechreg_Parcelle_Kemel_1", "area_ha": 0.84334695012578742 }, "geometry": { "type": "MultiPolygon", "coordinates": [ [ [ [ 9.164372596312976, 37.178860185657719 ], [ 9.164380008383889, 37.178977585323878 ], [ 9.164383823014997, 37.179086399006444 ], [ 9.164430503208825, 37.179157925666971 ], [ 9.164502080238334, 37.179157826317756 ], [ 9.164602257012922, 37.179143368913557 ], [ 9.164932028012007, 37.179380593891459 ], [ 9.165218012662489, 37.179231285306336 ], [ 9.165421732641416, 37.179105000161151 ], [ 9.165489587094394, 37.179039041297614 ], [ 9.165568134209625, 37.178953021853751 ], [ 9.165975915401891, 37.178857950670803 ], [ 9.166097483008484, 37.178806234493152 ], [ 9.166176010375285, 37.178711623699662 ], [ 9.166057514094126, 37.178531379409272 ], [ 9.166003687651946, 37.178465590710104 ], [ 9.165978498091794, 37.178402625533295 ], [ 9.1659819704001, 37.178353938492251 ], [ 9.165913860221741, 37.178302488045261 ], [ 9.165717238297333, 37.178400127549111 ], [ 9.165180964634725, 37.178652878196452 ], [ 9.164959270351044, 37.178741960415621 ], [ 9.164866289178956, 37.178773590054462 ], [ 9.164551507128113, 37.178845619049333 ], [ 9.164379698145042, 37.178834402889947 ], [ 9.164372596312976, 37.178860185657719 ] ] ] ] } }
]
}
